{
  "type": "FeatureCollection",
  "features": [
    {
      "type": "Feature",
      "properties": {
        "norad_id": 43719,
        "name": "HYSIS",
        "group": "resource",
        "lat": 52.72825817681901,
        "lon": 35.53437090124639,
        "alt_km": 627.6526071598164,
        "timestamp": "2025-12-09T04:51:47.165222+00:00",
        "meta_object_name": "HYSIS",
        "meta_object_id": "2018-096A",
        "meta_epoch": "2025-12-08T20:30:05.743296",
        "meta_mean_motion": 14.7862697,
        "meta_eccentricity": 0.0001545,
        "meta_inclination": 98.0101,
        "meta_ra_of_asc_node": 45.8509,
        "meta_arg_of_pericenter": 56.8271,
        "meta_mean_anomaly": 303.3088,
        "meta_ephemeris_type": 0,
        "meta_classification_type": "U",
        "meta_norad_cat_id": 43719,
        "meta_element_set_no": 999,
        "meta_rev_at_epoch": 37929,
        "meta_bstar": 0.00021523,
        "meta_mean_motion_dot": 1.524e-05,
        "meta_mean_motion_ddot": 0,
        "tle_line1": "1 43719U 18096A   25342.85423314  .00001524  00000+0  21523-3 0  9991",
        "tle_line2": "2 43719  98.0101  45.8509 0001545  56.8271 303.3088 14.78626970379295"
      },
      "geometry": {
        "type": "Point",
        "coordinates": [
          35.53437090124639,
          52.72825817681901
        ]
      }
    },
    {
      "type": "Feature",
      "properties": {
        "norad_id": 43783,
        "name": "KAZSTSAT",
        "group": "resource",
        "lat": 26.30384565099743,
        "lon": 14.828024637707198,
        "alt_km": 564.8724083581583,
        "timestamp": "2025-12-09T04:51:47.165232+00:00",
        "meta_object_name": "KAZSTSAT",
        "meta_object_id": "2018-099AB",
        "meta_epoch": "2025-12-08T15:55:53.452704",
        "meta_mean_motion": 14.99334674,
        "meta_eccentricity": 0.0006139,
        "meta_inclination": 97.4556,
        "meta_ra_of_asc_node": 18.0238,
        "meta_arg_of_pericenter": 346.9065,
        "meta_mean_anomaly": 13.1998,
        "meta_ephemeris_type": 0,
        "meta_classification_type": "U",
        "meta_norad_cat_id": 43783,
        "meta_element_set_no": 999,
        "meta_rev_at_epoch": 38275,
        "meta_bstar": 0.00024608,
        "meta_mean_motion_dot": 2.952e-05,
        "meta_mean_motion_ddot": 0,
        "tle_line1": "1 43783U 18099AB  25342.66381311  .00002952  00000+0  24608-3 0  9997",
        "tle_line2": "2 43783  97.4556  18.0238 0006139 346.9065  13.1998 14.99334674382753"
      },
      "geometry": {
        "type": "Point",
        "coordinates": [
          14.828024637707198,
          26.30384565099743
        ]
      }
    },
    {
      "type": "Feature",
      "properties": {
        "norad_id": 43831,
        "name": "SAUDISAT 5A",
        "group": "resource",
        "lat": 73.05196179596085,
        "lon": -111.53168936204689,
        "alt_km": 474.3174372101248,
        "timestamp": "2025-12-09T04:51:47.165243+00:00",
        "meta_object_name": "SAUDISAT 5A",
        "meta_object_id": "2018-102A",
        "meta_epoch": "2025-12-08T20:31:59.305728",
        "meta_mean_motion": 15.25584098,
        "meta_eccentricity": 0.0011825,
        "meta_inclination": 97.3353,
        "meta_ra_of_asc_node": 43.1215,
        "meta_arg_of_pericenter": 88.1035,
        "meta_mean_anomaly": 272.1557,
        "meta_ephemeris_type": 0,
        "meta_classification_type": "U",
        "meta_norad_cat_id": 43831,
        "meta_element_set_no": 999,
        "meta_rev_at_epoch": 38663,
        "meta_bstar": 0.00039964,
        "meta_mean_motion_dot": 0.00010101,
        "meta_mean_motion_ddot": 0,
        "tle_line1": "1 43831U 18102A   25342.85554752  .00010101  00000+0  39964-3 0  9994",
        "tle_line2": "2 43831  97.3353  43.1215 0011825  88.1035 272.1557 15.25584098386631"
      },
      "geometry": {
        "type": "Point",
        "coordinates": [
          -111.53168936204689,
          73.05196179596085
        ]
      }
    },
    {
      "type": "Feature",
      "properties": {
        "norad_id": 43833,
        "name": "SAUDISAT 5B",
        "group": "resource",
        "lat": 26.533087203679166,
        "lon": -130.11326304272058,
        "alt_km": 483.26366089358,
        "timestamp": "2025-12-09T04:51:47.165253+00:00",
        "meta_object_name": "SAUDISAT 5B",
        "meta_object_id": "2018-102C",
        "meta_epoch": "2025-12-08T20:19:34.910976",
        "meta_mean_motion": 15.25938522,
        "meta_eccentricity": 0.0012537,
        "meta_inclination": 97.3447,
        "meta_ra_of_asc_node": 45.8447,
        "meta_arg_of_pericenter": 90.5372,
        "meta_mean_anomaly": 269.7303,
        "meta_ephemeris_type": 0,
        "meta_classification_type": "U",
        "meta_norad_cat_id": 43833,
        "meta_element_set_no": 999,
        "meta_rev_at_epoch": 38674,
        "meta_bstar": 0.00037179,
        "meta_mean_motion_dot": 9.494e-05,
        "meta_mean_motion_ddot": 0,
        "tle_line1": "1 43833U 18102C   25342.84693184  .00009494  00000+0  37179-3 0  9997",
        "tle_line2": "2 43833  97.3447  45.8447 0012537  90.5372 269.7303 15.25938522386743"
      },
      "geometry": {
        "type": "Point",
        "coordinates": [
          -130.11326304272058,
          26.533087203679166
        ]
      }
    },
    {
      "type": "Feature",
      "properties": {
        "norad_id": 44622,
        "name": "GAOFEN-10R",
        "group": "resource",
        "lat": -72.9281867600786,
        "lon": -41.94712887192687,
        "alt_km": 631.2308310994649,
        "timestamp": "2025-12-09T04:51:47.165263+00:00",
        "meta_object_name": "GAOFEN-10R",
        "meta_object_id": "2019-066A",
        "meta_epoch": "2025-12-08T21:06:09.069696",
        "meta_mean_motion": 14.82772929,
        "meta_eccentricity": 0.0008054,
        "meta_inclination": 98.0276,
        "meta_ra_of_asc_node": 290.3705,
        "meta_arg_of_pericenter": 52.6519,
        "meta_mean_anomaly": 307.5427,
        "meta_ephemeris_type": 0,
        "meta_classification_type": "U",
        "meta_norad_cat_id": 44622,
        "meta_element_set_no": 999,
        "meta_rev_at_epoch": 33417,
        "meta_bstar": 0.00041336,
        "meta_mean_motion_dot": 3.289e-05,
        "meta_mean_motion_ddot": 0,
        "tle_line1": "1 44622U 19066A   25342.87927164  .00003289  00000+0  41336-3 0  9991",
        "tle_line2": "2 44622  98.0276 290.3705 0008054  52.6519 307.5427 14.82772929334170"
      },
      "geometry": {
        "type": "Point",
        "coordinates": [
          -41.94712887192687,
          -72.9281867600786
        ]
      }
    },
    {
      "type": "Feature",
      "properties": {
        "norad_id": 44804,
        "name": "CARTOSAT-3",
        "group": "resource",
        "lat": -15.488970553196005,
        "lon": 44.910841391745514,
        "alt_km": 516.539457817079,
        "timestamp": "2025-12-09T04:51:47.165273+00:00",
        "meta_object_name": "CARTOSAT-3",
        "meta_object_id": "2019-081A",
        "meta_epoch": "2025-12-08T19:26:51.989280",
        "meta_mean_motion": 15.19316475,
        "meta_eccentricity": 0.0014038,
        "meta_inclination": 97.4585,
        "meta_ra_of_asc_node": 42.4429,
        "meta_arg_of_pericenter": 98.9891,
        "meta_mean_anomaly": 261.2934,
        "meta_ephemeris_type": 0,
        "meta_classification_type": "U",
        "meta_norad_cat_id": 44804,
        "meta_element_set_no": 999,
        "meta_rev_at_epoch": 33456,
        "meta_bstar": 0.00019679,
        "meta_mean_motion_dot": 4.097e-05,
        "meta_mean_motion_ddot": 0,
        "tle_line1": "1 44804U 19081A   25342.81032395  .00004097  00000+0  19679-3 0  9990",
        "tle_line2": "2 44804  97.4585  42.4429 0014038  98.9891 261.2934 15.19316475334565"
      },
      "geometry": {
        "type": "Point",
        "coordinates": [
          44.910841391745514,
          -15.488970553196005
        ]
      }
    },
    {
      "type": "Feature",
      "properties": {
        "norad_id": 44819,
        "name": "GAOFEN-12 01",
        "group": "resource",
        "lat": -39.03473230860909,
        "lon": 163.1848788170896,
        "alt_km": 633.1080631666673,
        "timestamp": "2025-12-09T04:51:47.165283+00:00",
        "meta_object_name": "GAOFEN-12 01",
        "meta_object_id": "2019-082A",
        "meta_epoch": "2025-12-08T21:23:15.443808",
        "meta_mean_motion": 14.8065122,
        "meta_eccentricity": 0.0001193,
        "meta_inclination": 97.8127,
        "meta_ra_of_asc_node": 349.2731,
        "meta_arg_of_pericenter": 259.0738,
        "meta_mean_anomaly": 101.034,
        "meta_ephemeris_type": 0,
        "meta_classification_type": "U",
        "meta_norad_cat_id": 44819,
        "meta_element_set_no": 999,
        "meta_rev_at_epoch": 32593,
        "meta_bstar": 0.0001406,
        "meta_mean_motion_dot": 1.029e-05,
        "meta_mean_motion_ddot": 0,
        "tle_line1": "1 44819U 19082A   25342.89115097  .00001029  00000+0  14060-3 0  9997",
        "tle_line2": "2 44819  97.8127 349.2731 0001193 259.0738 101.0340 14.80651220325939"
      },
      "geometry": {
        "type": "Point",
        "coordinates": [
          163.1848788170896,
          -39.03473230860909
        ]
      }
    }
  ]
}